0 SL-14 R/B
1 18821U 88005B   13282.99357903  .00000025  00000-0  91581-5 0  9774
2 18821 082.5439 053.6992 0015202 154.3141 344.0130 13.85061914298929
0 SL-14 R/B
1 18821U 88005B   13285.95561454 -.00000004  00000-0 -16667-4 0  9793
2 18821 082.5446 051.3416 0015349 146.5224 352.8456 13.85061929299330
0 SL-14 R/B
1 18821U 88005B   13286.96648539  .00000004  00000-0 -92974-5 0  9802
2 18821 082.5449 050.5371 0015396 143.8162 353.1378 13.85061945299477
0 SL-14 R/B
1 18821U 88005B   13287.97800347  .00000023  00000-0  68823-5 0  9818
2 18821 082.5451 049.7321 0015431 141.1806 356.5853 13.85061873299612
0 SL-14 R/B
1 18821U 88005B   13289.18773265  .00000058  00000-0  37800-4 0  9820
2 18821 082.5452 048.7695 0015462 138.0638 268.2821 13.85061845299789
0 SL-14 R/B
1 18821U 88005B   13290.48861378  .00000034  00000-0  16992-4 0  9832
2 18821 082.5452 047.7343 0015466 134.8044 274.3664 13.85061677299963
0 SL-14 R/B
1 18821U 88005B   13291.49987968  .00000042  00000-0  23979-4 0  9841
2 18821 082.5452 046.9296 0015501 132.1305 276.5945 13.85061772300103
0 SL-14 R/B
1 18821U 88005B   13292.75150554  .00000075  00000-0  53160-4 0  9856
2 18821 082.5452 045.9337 0015557 128.7891 037.3035 13.85061907300271
0 SL-14 R/B
1 18821U 88005B   13293.83266087  .00000059  00000-0  38757-4 0  9863
2 18821 082.5452 045.0734 0015579 125.9861 027.9479 13.85061954300429
0 SL-14 R/B
1 18821U 88005B   13294.84508437  .00000036  00000-0  18216-4 0  9877
2 18821 082.5452 044.2678 0015621 123.3621 035.8946 13.85062091300566
0 SL-14 R/B
1 18821U 88005B   13296.19433821  .00000030  00000-0  13193-4 0  9885
2 18821 082.5453 043.1942 0015625 119.8910 283.2537 13.85062309300752
